[{"OBJECT_NAME":"STARLINK-3794","OBJECT_ID":"2022-052AK","EPOCH":"2026-03-09T17:01:15.466656","MEAN_MOTION":15.08834583,"ECCENTRICITY":0.00014502,"INCLINATION":53.2161,"RA_OF_ASC_NODE":269.0459,"ARG_OF_PERICENTER":93.9157,"MEAN_ANOMALY":266.2001,"EPHEMERIS_TYPE":0,"CLASSIFICATION_TYPE":"U","NORAD_CAT_ID":52631,"ELEMENT_SET_NO":999,"REV_AT_EPOCH":21100,"BSTAR":6.250363e-6,"MEAN_MOTION_DOT":-1.88e-6,"MEAN_MOTION_DDOT":0},{"OBJECT_NAME":"CZ-4B DEB","OBJECT_ID":"2008-053L","EPOCH":"2026-03-08T19:52:33.417984","MEAN_MOTION":15.09778257,"ECCENTRICITY":0.00077037,"INCLINATION":97.7892,"RA_OF_ASC_NODE":87.441,"ARG_OF_PERICENTER":237.5543,"MEAN_ANOMALY":122.4941,"EPHEMERIS_TYPE":0,"CLASSIFICATION_TYPE":"U","NORAD_CAT_ID":36290,"ELEMENT_SET_NO":999,"REV_AT_EPOCH":71411,"BSTAR":0.00021001,"MEAN_MOTION_DOT":3.326e-5,"MEAN_MOTION_DDOT":0}]
